INMARSAT 4-F2 (SOUTHPA*)
1 28899U 05044A   26169.56679557 -.00000269  00000+0  00000+0 0  9999
2 28899   5.0973  43.7031 0002918  41.1947 169.4302  1.00269076 75532
GSAT-8 (GAGAN/PRN 127)  
1 37605U 11022A   26169.89515080  .00000078  00000+0  00000+0 0  9990
2 37605   2.1365  81.8041 0002093 198.1643   4.4963  1.00271420 53234
LUCH 5A (SDCM/PRN 140)  
1 37951U 11074B   26169.52461317 -.00000060  00000+0  00000+0 0  9996
2 37951   8.7582  73.7878 0002335  26.9496 161.8222  1.00270425 53063
SES-5 (EGNOS/PRN 136)   
1 38652U 12036A   26169.53933329  .00000027  00000+0  00000+0 0  9994
2 38652   0.0452 317.9851 0001720 125.6785  22.2406  1.00269306 44477
GSAT-10 (GAGAN/PRN 128) 
1 38779U 12051B   26169.84004942 -.00000171  00000+0  00000+0 0  9996
2 38779   0.0758 261.8658 0007761 186.2753 204.3585  1.00272149 50115
LUCH 5B (SDCM/PRN 125)  
1 38977U 12061A   26169.39261786 -.00000148  00000+0  00000+0 0  9992
2 38977  10.4882  49.8703 0002494 151.0369 190.7943  1.00272039 49611
ASTRA 5B (EGNOS/PRN 123)
1 39617U 14011B   26169.84955750  .00000131  00000+0  00000+0 0  9993
2 39617   0.0663 310.0482 0001949 147.2225 139.1677  1.00272928 44684
LUCH 5V (SDCM/PRN 141)  
1 39727U 14023A   26169.80346045 -.00000277  00000+0  00000+0 0  9997
2 39727   5.1369  69.7269 0001864  50.0917 171.1841  1.00273727 44374
GSAT-15 (GAGAN/PRN 139) 
1 41028U 15065A   26169.84212943 -.00000264  00000+0  00000+0 0  9990
2 41028   0.0655 264.6378 0004337 165.3519 233.7618  1.00272956 38818
EUTELSAT 117 WEST B (W*)
1 41589U 16038B   26169.78149605 -.00000018  00000+0  00000+0 0  9997
2 41589   0.0098 155.1273 0000602 315.1255 321.1141  1.00271783 36674
SES-15 (WAAS/PRN 133)   
1 42709U 17026A   26169.65541766  .00000054  00000+0  00000+0 0  9999
2 42709   0.0191 340.5761 0000401  68.3393 324.7415  1.00268456  7441
QZS-2 (QZSS/PRN 194)    
1 42738U 17028A   26169.51919975 -.00000177  00000+0  00000+0 0  9996
2 42738  39.4254 243.1353 0759246 269.2826  83.0137  1.00283521  7643
QZS-3 (QZSS/PRN 199)    
1 42917U 17048A   26169.82847257 -.00000354  00000+0  00000+0 0  9991
2 42917   0.0665 166.6691 0001914 276.9139 248.7177  1.00275328 32277
QZS-4 (QZSS/PRN 195)    
1 42965U 17062A   26169.35012919 -.00000360  00000+0  00000+0 0  9994
2 42965  40.1070 343.4662 0745019 271.8091 274.2172  1.00250086 31812
BEIDOU-3 G1 (PRN 130)   
1 43683U 18085A   26169.78393056 -.00000116  00000+0  00000+0 0  9998
2 43683   2.8728  97.3207 0008064 349.9785 261.8819  1.00270305 28074
EUTELSAT 5 WEST B (EGN*)
1 44624U 19067A   26169.75133867 -.00000049  00000+0  00000+0 0  9999
2 44624   0.0630 348.3807 0003019  99.0075  85.1011  1.00269764 24453
BEIDOU-3 G2 (PRN 144)   
1 45344U 20017A   26169.83944277 -.00000148  00000+0  00000+0 0  9990
2 45344   2.8680  47.3866 0002035  33.5044 208.4616  1.00271722 23272
BEIDOU-3 G3 (PRN 143)   
1 45807U 20040A   26169.85025209 -.00000360  00000+0  00000+0 0  9993
2 45807   2.4519  67.4538 0002352 336.5305 279.6539  1.00265518 22088
GALAXY 30 (WAAS/PRN 135)
1 46114U 20056C   26169.65628434  .00000030  00000+0  00000+0 0  9992
2 46114   0.0165 349.8313 0002166  96.1871 292.1283  1.00272111 21306
QZS-1R (QZSS/PRN 196)   
1 49336U 21096A   26169.67274184 -.00000287  00000+0  00000+0 0  9992
2 49336  37.4655  79.5604 0754676 271.8345 291.5952  1.00254899 17024
QZS-6 (QZSS/PRN 200)    
1 62876U 25023A   26169.84152277 -.00000239  00000+0  00000+0 0  9994
2 62876   0.0577  72.2588 0001813  20.0070 208.2716  1.00270318  4961
